HELLAS-SAT 3            
1 42814U 17040A   26157.85423681  .00000166  00000+0  00000+0 0  9990
2 42814   0.0534  51.7989 0004777 358.0836 191.9083  1.00273016 32703
GSAT-17                 
1 42815U 17040B   26157.93638355 -.00000244  00000+0  00000+0 0  9994
2 42815   0.1001  88.4667 0001601 216.3357  21.1528  1.00271752 32681
INTELSAT 35E (IS-35E)   
1 42818U 17041A   26157.91097275 -.00000224  00000+0  00000+0 0  9994
2 42818   0.0157  51.3290 0001877  23.2956 114.1701  1.00273179 32716
COSMOS 2520             
1 42907U 17046A   26157.92352161  .00000151  00000+0  00000+0 0  9995
2 42907   0.0433  85.8905 0001195  68.6157 118.3116  1.00270789 32299
TDRS 13                 
1 42915U 17047A   26157.91559648 -.00000087  00000+0  00000+0 0  9992
2 42915   3.4489   2.4640 0014644 104.8052 106.2340  1.00272270 32244
QZS-3 (MICHIBIKI-3)     
1 42917U 17048A   26157.94297025 -.00000334  00000+0  00000+0 0  9991
2 42917   0.0578 187.6243 0002780 257.6440 276.5905  1.00270684 32154
AMAZONAS 5              
1 42934U 17053A   26157.83444491 -.00000269  00000+0  00000+0 0  9992
2 42934   0.0341 318.4143 0002674  69.5250 106.7272  1.00272338 31940
ASIASAT 9               
1 42942U 17057A   26157.44297469 -.00000346  00000+0  00000+0 0  9999
2 42942   0.0062 349.0884 0002451  80.0446 107.2950  1.00270371 31752
INTELSAT 37E (IS-37E)   
1 42950U 17059A   26157.91429648 -.00000127  00000+0  00000+0 0  9995
2 42950   0.0144  49.3720 0002544  43.1891 113.9262  1.00271598 31963
BSAT-4A                 
1 42951U 17059B   26157.93959023 -.00000336  00000+0  00000+0 0  9995
2 42951   0.0351 359.5628 0004398  68.2768 275.5894  1.00269354 31690
QZS-4 (MICHIBIKI-4)     
1 42965U 17062A   26157.37281824 -.00000313  00000+0  00000+0 0  9994
2 42965  40.1149 343.6213 0744893 271.5546 271.6824  1.00254650 31696
SES-11 (ECHOSTAR 105)   
1 42967U 17063A   26157.89701936 -.00000075  00000+0  00000+0 0  9990
2 42967   0.0157 334.7466 0002805 112.1138  26.4293  1.00271182 31628
KOREASAT 5A             
1 42984U 17067A   26157.94019691 -.00000344  00000+0  00000+0 0  9998
2 42984   0.0158 304.8257 0000728 129.3845 272.7716  1.00273160 31423
ALCOMSAT 1              
1 43039U 17078A   26157.84163828 -.00000172  00000+0  00000+0 0  9992
2 43039   0.0283  61.8316 0002483   9.8272 101.7826  1.00273424 31196
SBIRS GEO-3 (USA 282)   
1 43162U 18009A   26157.81494483  .00000141  00000+0  00000+0 0  9990
2 43162   2.1767  11.5902 0002218  61.6047 316.0205  1.00272224 30747
AL YAH 3                
1 43174U 18012A   26157.84259162 -.00000141  00000+0  00000+0 0  9994
2 43174   1.5243  83.2347 0004217 352.9239 102.3393  1.00271928 30745
SES-14                  
1 43175U 18012B   26157.83713160 -.00000265  00000+0  00000+0 0  9994
2 43175   0.0187  23.0080 0001166  57.2241  68.8904  1.00271521  6927
GOES 17                 
1 43226U 18022A   26157.90013938 -.00000169  00000+0  00000+0 0  9999
2 43226   0.9103  85.8849 0000690   7.1097  36.8795  1.00272493 30327
HISPASAT 30W-6          
1 43228U 18023A   26157.76920367 -.00000202  00000+0  00000+0 0  9997
2 43228   0.0420  36.6549 0006085  30.7593  74.6931  1.00271522 30302
SUPERBIRD-B3            
1 43271U 18033A   26157.87861741 -.00000078  00000+0  00000+0 0  9999
2 43271   0.0240 288.4906 0001370 165.9369 279.1791  1.00271179 29951
HYLAS 4                 
1 43272U 18033B   26157.91123275 -.00000220  00000+0  00000+0 0  9997
2 43272   0.0211  60.8713 0001310  33.9111  95.1283  1.00266266 29965
IRNSS-1I                
1 43286U 18035A   26157.98519319  .00000092  00000+0  00000+0 0  9995
2 43286  28.7305  74.3576 0016508 194.5221  36.1312  1.00270043 29976
USA 283                 
1 43339U 18036A   26155.44904296  .00000000  00000+0  00000+0 0  9995
2 43339   0.0148 344.8211 0000547 104.8728  98.9470  1.00268935 25161
COSMOS 2526             
1 43432U 18037A   26157.23020069 -.00000331  00000+0  00000+0 0  9994
2 43432   0.0119  12.3339 0000874 250.6118 202.6342  1.00273242 29856
APSTAR-6C               
1 43450U 18041A   26157.88798848 -.00000304  00000+0  00000+0 0  9997
2 43450   0.0287 322.6679 0001295  36.6647 349.6405  1.00274310 29706
BANGABANDHUSAT-1        
1 43463U 18044A   26157.94141024 -.00000349  00000+0  00000+0 0  9998
2 43463   0.0366  94.0770 0002032 352.5356 266.7502  1.00273059 29602
SES-12                  
1 43488U 18049A   26157.87108438 -.00000255  00000+0  00000+0 0  9990
2 43488   0.0296  47.6041 0000783 247.2651   9.0063  1.00269448 29310
FENGYUN 2H              
1 43491U 18050A   26157.95983480 -.00000117  00000+0  00000+0 0  9990
2 43491   3.0045  79.1916 0001470 125.8792 115.2960  1.00271640 29336
BEIDOU-2 IGSO-7         
1 43539U 18057A   26157.96026241  .00000014  00000+0  00000+0 0  9999
2 43539  55.1931 163.1468 0104780 237.9579 310.6863  1.00254777 29024
TELSTAR 19V             
1 43562U 18059A   26157.90533940 -.00000266  00000+0  00000+0 0  9990
2 43562   0.0316 182.9272 0002655 285.7882  49.5199  1.00271065 29045
TELKOM 4 (MERAH PUTIH)  
1 43587U 18064A   26157.92462104 -.00000330  00000+0  00000+0 0  9990
2 43587   0.0189 304.4023 0001496 154.9858 236.8189  1.00272586 28775
