OBJECT_NAME,OBJECT_ID,EPOCH,MEAN_MOTION,ECCENTRICITY,INCLINATION,RA_OF_ASC_NODE,ARG_OF_PERICENTER,MEAN_ANOMALY,EPHEMERIS_TYPE,CLASSIFICATION_TYPE,NORAD_CAT_ID,ELEMENT_SET_NO,REV_AT_EPOCH,BSTAR,MEAN_MOTION_DOT,MEAN_MOTION_DDOT
HELLAS-SAT 3,2017-040A,2026-06-06T20:30:06.060384,1.00273016,.00047778,0.0534,51.7989,358.0836,191.9083,0,U,42814,999,3270,0,.166E-5,0
GSAT-17,2017-040B,2026-06-06T22:28:23.538720,1.00271752,.0001601,0.1001,88.4667,216.3357,21.1528,0,U,42815,999,3268,0,-.244E-5,0
INTELSAT 35E (IS-35E),2017-041A,2026-06-06T21:51:48.045600,1.00273179,.00018773,0.0157,51.3290,23.2956,114.1701,0,U,42818,999,3271,0,-.224E-5,0
COSMOS 2520,2017-046A,2026-06-06T22:09:52.267104,1.00270789,.00011952,0.0433,85.8905,68.6157,118.3116,0,U,42907,999,3229,0,.151E-5,0
TDRS 13,2017-047A,2026-06-06T21:58:27.535872,1.00272270,.00146445,3.4489,2.4640,104.8052,106.2340,0,U,42915,999,3224,0,-.87E-6,0
QZS-3 (MICHIBIKI-3),2017-048A,2026-06-06T22:37:52.629600,1.00270684,.00027805,0.0578,187.6243,257.6440,276.5905,0,U,42917,999,3215,0,-.334E-5,0
AMAZONAS 5,2017-053A,2026-06-06T20:01:36.040224,1.00272338,.00026745,0.0341,318.4143,69.5250,106.7272,0,U,42934,999,3194,0,-.269E-5,0
ASIASAT 9,2017-057A,2026-06-06T10:37:53.013216,1.00270371,.00024518,0.0062,349.0884,80.0446,107.2950,0,U,42942,999,3175,0,-.346E-5,0
INTELSAT 37E (IS-37E),2017-059A,2026-06-06T21:56:35.215872,1.00271598,.00025446,0.0144,49.3720,43.1891,113.9262,0,U,42950,999,3196,0,-.127E-5,0
BSAT-4A,2017-059B,2026-06-06T22:33:00.595872,1.00269354,.00043982,0.0351,359.5628,68.2768,275.5894,0,U,42951,999,3169,0,-.336E-5,0
QZS-4 (MICHIBIKI-4),2017-062A,2026-06-06T08:56:51.495936,1.00254650,.07448937,40.1149,343.6213,271.5546,271.6824,0,U,42965,999,3169,0,-.313E-5,0
SES-11 (ECHOSTAR 105),2017-063A,2026-06-06T21:31:42.472704,1.00271182,.00028052,0.0157,334.7466,112.1138,26.4293,0,U,42967,999,3162,0,-.75E-6,0
KOREASAT 5A,2017-067A,2026-06-06T22:33:53.013024,1.00273160,.00007281,0.0158,304.8257,129.3845,272.7716,0,U,42984,999,3142,0,-.344E-5,0
ALCOMSAT 1,2017-078A,2026-06-06T20:11:57.547392,1.00273424,.00024832,0.0283,61.8316,9.8272,101.7826,0,U,43039,999,3119,0,-.172E-5,0
SBIRS GEO-3 (USA 282),2018-009A,2026-06-06T19:33:31.233312,1.00272224,.00022182,2.1767,11.5902,61.6047,316.0205,0,U,43162,999,3074,0,.141E-5,0
AL YAH 3,2018-012A,2026-06-06T20:13:19.915968,1.00271928,.00042172,1.5243,83.2347,352.9239,102.3393,0,U,43174,999,3074,0,-.141E-5,0
SES-14,2018-012B,2026-06-06T20:05:28.170240,1.00271521,.00011669,0.0187,23.0080,57.2241,68.8904,0,U,43175,999,692,0,-.265E-5,0
GOES 17,2018-022A,2026-06-06T21:36:12.042432,1.00272493,.00006909,0.9103,85.8849,7.1097,36.8795,0,U,43226,999,3032,0,-.169E-5,0
HISPASAT 30W-6,2018-023A,2026-06-06T18:27:39.197088,1.00271522,.00060854,0.0420,36.6549,30.7593,74.6931,0,U,43228,999,3030,0,-.202E-5,0
SUPERBIRD-B3,2018-033A,2026-06-06T21:05:12.544224,1.00271179,.00013703,0.0240,288.4906,165.9369,279.1791,0,U,43271,999,2995,0,-.78E-6,0
HYLAS 4,2018-033B,2026-06-06T21:52:10.509600,1.00266266,.00013109,0.0211,60.8713,33.9111,95.1283,0,U,43272,999,2996,0,-.22E-5,0
IRNSS-1I,2018-035A,2026-06-06T23:38:40.691616,1.00270043,.00165089,28.7305,74.3576,194.5221,36.1312,0,U,43286,999,2997,0,.92E-6,0
USA 283,2018-036A,2026-06-04T10:46:37.311744,1.00268935,.0000547,0.0148,344.8211,104.8728,98.9470,0,U,43339,999,2516,0,0,0
COSMOS 2526,2018-037A,2026-06-06T05:31:29.339616,1.00273242,.0000874,0.0119,12.3339,250.6118,202.6342,0,U,43432,999,2985,0,-.331E-5,0
APSTAR-6C,2018-041A,2026-06-06T21:18:42.204672,1.00274310,.0001295,0.0287,322.6679,36.6647,349.6405,0,U,43450,999,2970,0,-.304E-5,0
BANGABANDHUSAT-1,2018-044A,2026-06-06T22:35:37.844736,1.00273059,.00020327,0.0366,94.0770,352.5356,266.7502,0,U,43463,999,2960,0,-.349E-5,0
SES-12,2018-049A,2026-06-06T20:54:21.690432,1.00269448,.0000783,0.0296,47.6041,247.2651,9.0063,0,U,43488,999,2931,0,-.255E-5,0
FENGYUN 2H,2018-050A,2026-06-06T23:02:09.726720,1.00271640,.00014705,3.0045,79.1916,125.8792,115.2960,0,U,43491,999,2933,0,-.117E-5,0
BEIDOU-2 IGSO-7,2018-057A,2026-06-06T23:02:46.672224,1.00254777,.01047806,55.1931,163.1468,237.9579,310.6863,0,U,43539,999,2902,0,.14E-6,0
TELSTAR 19V,2018-059A,2026-06-06T21:43:41.324160,1.00271065,.00026556,0.0316,182.9272,285.7882,49.5199,0,U,43562,999,2904,0,-.266E-5,0
TELKOM 4 (MERAH PUTIH),2018-064A,2026-06-06T22:11:27.257856,1.00272586,.00014965,0.0189,304.4023,154.9858,236.8189,0,U,43587,999,2877,0,-.33E-5,0
